NORAD_CAT_ID,OBJECT_NAME,OBJECT_TYPE,EPOCH,MEAN_MOTION,ECCENTRICITY,INCLINATION,RA_OF_ASC_NODE,ARG_OF_PERICENTER,MEAN_ANOMALY,BSTAR,MEAN_MOTION_DOT,MEAN_MOTION_DDOT,TLE_LINE0,TLE_LINE1,TLE_LINE2,SEMIMAJOR_AXIS,PERIOD,APOGEE,PERIGEE,DECAYED
56787.0,STARLINK-6326,PAYLOAD,2024-07-19 13:43:48,14.98330148,0.0002817,70.0005,32.4288,271.2191,88.8645,0.00010928,1.211e-05,0.0,0 STARLINK-6326,1 56787U 23078W   24201.57208949  .00001211  00000-0  10928-3 0  9994,2 56787  70.0005  32.4288 0002817 271.2191  88.8645 14.98330148 63587,6950.192,96.107,574.015,570.1,0.0
56787.0,STARLINK-6326,PAYLOAD,2024-07-19 20:08:20,14.98330923,0.0002832,70.0005,31.7556,270.9493,89.1342,0.00011143,1.237e-05,0.0,0 STARLINK-6326,1 56787U 23078W   24201.83912926  .00001237  00000-0  11143-3 0  9998,2 56787  70.0005  31.7556 0002832 270.9493  89.1342 14.98330923 63887,6950.19,96.107,574.023,570.087,0.0
56787.0,STARLINK-6326,PAYLOAD,2024-07-19 21:44:28,14.98332721,0.000282,70.0006,31.5873,270.8695,89.214,0.00013055,1.465e-05,0.0,0 STARLINK-6326,1 56787U 23078W   24201.90588768  .00001465  00000-0  13055-3 0  9996,2 56787  70.0006  31.5873 0002820 270.8695  89.2140 14.98332721 63636,6950.184,96.107,574.009,570.09,0.0
56787.0,STARLINK-6326,PAYLOAD,2024-07-20 13:45:49,14.98331789,0.0002782,70.0007,29.9038,270.1176,89.9664,4.286e-05,4.18e-06,0.0,0 STARLINK-6326,1 56787U 23078W   24202.57348991  .00000418  00000-0  42860-4 0  9996,2 56787  70.0007  29.9038 0002782 270.1176  89.9664 14.98331789 63737,6950.187,96.107,573.986,570.119,0.0
56787.0,STARLINK-6326,PAYLOAD,2024-07-20 20:10:21,14.98331283,0.0002852,70.0007,29.2312,266.2904,93.7929,1.6955e-05,1.09e-06,0.0,0 STARLINK-6326,1 56787U 23078W   24202.84053011  .00000109  00000-0  16955-4 0  9995,2 56787  70.0007  29.2312 0002852 266.2904  93.7929 14.98331283 64038,6950.189,96.107,574.036,570.072,0.0
56787.0,STARLINK-6326,PAYLOAD,2024-07-20 21:46:29,14.98332075,0.0002848,70.0008,29.0628,266.6038,93.4795,2.5103e-05,2.07e-06,0.0,0 STARLINK-6326,1 56787U 23078W   24202.90728932  .00000207  00000-0  25103-4 0  9997,2 56787  70.0008  29.0628 0002848 266.6038  93.4795 14.98332075 63783,6950.186,96.107,574.031,570.072,0.0
56787.0,STARLINK-6326,PAYLOAD,2024-07-20 23:22:37,14.98358152,0.0002988,70.0008,28.8943,266.7024,93.3794,-0.00042291,-5.139e-05,0.0,0 STARLINK-6326,1 56787U 23078W   24202.97404028 -.00005139  00000-0 -42291-3 0  9998,2 56787  70.0008  28.8943 0002988 266.7024  93.3794 14.98358152 64054,6950.106,96.105,574.048,569.894,0.0
56787.0,STARLINK-6326,PAYLOAD,2024-07-21 12:11:42,14.98326493,0.0003086,70.0003,27.5473,271.9532,88.1274,-1.1644e-05,-2.32e-06,0.0,0 STARLINK-6326,1 56787U 23078W   24203.50813312 -.00000232  00000-0 -11644-4 0  9996,2 56787  70.0003  27.5473 0003086 271.9532  88.1274 14.98326493 64132,6950.204,96.107,574.214,569.924,0.0
56787.0,STARLINK-6326,PAYLOAD,2024-07-21 13:47:50,14.98326638,0.0003119,70.0003,27.3791,271.8972,88.183,1.2775e-06,-7.8e-07,0.0,0 STARLINK-6326,1 56787U 23078W   24203.57489273 -.00000078  00000-0  12775-5 0  9992,2 56787  70.0003  27.3791 0003119 271.8972  88.1830 14.98326638 63887,6950.203,96.107,574.236,569.901,0.0
56787.0,STARLINK-6326,PAYLOAD,2024-07-21 21:48:30,14.98332885,0.0003028,70.0006,26.5378,272.127,87.9542,5.8424e-05,6.04e-06,0.0,0 STARLINK-6326,1 56787U 23078W   24203.90868767  .00000604  00000-0  58424-4 0  9992,2 56787  70.0006  26.5378 0003028 272.1270  87.9542 14.98332885 63930,6950.184,96.107,574.153,569.944,0.0
56787.0,STARLINK-6326,PAYLOAD,2024-07-22 12:13:43,14.98326661,0.0003072,70.0008,25.0216,271.0805,89.0002,9.3871e-05,1.027e-05,0.0,0 STARLINK-6326,1 56787U 23078W   24204.50953023  .00001027  00000-0  93871-4 0  9994,2 56787  70.0008  25.0216 0003072 271.0805  89.0002 14.98326661 64028,6950.203,96.107,574.203,569.933,0.0
56787.0,STARLINK-6326,PAYLOAD,2024-07-22 21:50:31,14.98332943,0.0002933,70.0009,24.0119,268.5846,91.4977,0.00010575,1.169e-05,0.0,0 STARLINK-6326,1 56787U 23078W   24204.91008643  .00001169  00000-0  10575-3 0  9994,2 56787  70.0009  24.0119 0002933 268.5846  91.4977 14.98332943 64085,6950.184,96.107,574.087,570.01,0.0
56787.0,STARLINK-6326,PAYLOAD,2024-07-23 21:52:32,14.98333553,0.0002907,70.0011,21.4867,268.8215,91.2611,9.1806e-05,1.003e-05,0.0,0 STARLINK-6326,1 56787U 23078W   24205.91148588  .00001003  00000-0  91806-4 0  9992,2 56787  70.0011  21.4867 0002907 268.8215  91.2611 14.98333553 64231,6950.182,96.107,574.067,570.026,0.0
56787.0,STARLINK-6326,PAYLOAD,2024-07-24 10:41:37,14.98332855,0.0002728,69.9959,20.1416,276.2608,83.824,5.7371e-05,5.92e-06,0.0,0 STARLINK-6326,1 56787U 23078W   24206.44556748  .00000592  00000-0  57371-4 0  9993,2 56787  69.9959  20.1416 0002728 276.2608  83.8240 14.98332855 64313,6950.184,96.107,573.945,570.153,0.0
56787.0,STARLINK-6326,PAYLOAD,2024-07-25 10:43:37,14.98331931,0.0002872,70.0013,17.6159,272.5033,87.5797,3.4713e-05,3.21e-06,0.0,0 STARLINK-6326,1 56787U 23078W   24207.44696742  .00000321  00000-0  34713-4 0  9998,2 56787  70.0013  17.6159 0002872 272.5033  87.5797 14.98331931 64720,6950.187,96.107,574.048,570.056,0.0
56787.0,STARLINK-6326,PAYLOAD,2024-07-25 21:56:34,14.9833054,0.0003051,69.9978,16.439,272.6499,87.4311,5.9373e-05,6.15e-06,0.0,0 STARLINK-6326,1 56787U 23078W   24207.91428608  .00000615  00000-0  59373-4 0  9999,2 56787  69.9978  16.4390 0003051 272.6499  87.4311 14.98330540 64533,6950.191,96.107,574.177,569.936,0.0
56787.0,STARLINK-6326,PAYLOAD,2024-07-26 10:45:38,14.98330397,0.0002962,69.9993,15.0917,268.9016,91.1803,5.5505e-05,5.69e-06,0.0,0 STARLINK-6326,1 56787U 23078W   24208.44836618  .00000569  00000-0  55505-4 0  9993,2 56787  69.9993  15.0917 0002962 268.9016  91.1803 14.98330397 64878,6950.192,96.107,574.115,569.998,0.0
56787.0,STARLINK-6326,PAYLOAD,2024-07-26 17:10:10,14.98333634,0.0002912,69.9998,14.4182,268.4804,91.6022,8.404e-05,9.1e-06,0.0,0 STARLINK-6326,1 56787U 23078W   24208.71540308  .00000910  00000-0  84040-4 0  9997,2 56787  69.9998  14.4182 0002912 268.4804  91.6022 14.98333634 64656,6950.182,96.107,574.071,570.023,0.0
56787.0,STARLINK-6326,PAYLOAD,2024-07-27 10:47:39,14.9832955,0.0003015,69.9992,12.5668,267.4229,92.6585,1.4156e-05,7.6e-07,0.0,0 STARLINK-6326,1 56787U 23078W   24209.44976713  .00000076  00000-0  14156-4 0  9995,2 56787  69.9992  12.5668 0003015 267.4229  92.6585 14.98329550 65022,6950.194,96.107,574.155,569.964,0.0
56787.0,STARLINK-6326,PAYLOAD,2024-07-27 20:24:28,14.98326689,0.0003049,69.9993,11.5565,268.0404,92.0406,-2.0709e-05,-3.4e-06,0.0,0 STARLINK-6326,1 56787U 23078W   24209.85033034 -.00000340  00000-0 -20709-4 0  9997,2 56787  69.9993  11.5565 0003049 268.0404  92.0406 14.98326689 64820,6950.203,96.107,574.187,569.949,0.0
56787.0,STARLINK-6326,PAYLOAD,2024-07-28 12:25:48,14.98331121,0.0003246,70.0,9.872,270.1067,89.972,3.3946e-05,3.12e-06,0.0,0 STARLINK-6326,1 56787U 23078W   24210.51792632  .00000312  00000-0  33946-4 0  9992,2 56787  70.0000   9.8720 0003246 270.1067  89.9720 14.98331121 65184,6950.189,96.107,574.31,569.798,0.0
56787.0,STARLINK-6326,PAYLOAD,2024-07-28 20:26:28,14.98337946,0.0003213,70.0006,9.031,271.2347,88.8444,6.1463e-05,6.41e-06,0.0,0 STARLINK-6326,1 56787U 23078W   24210.85172124  .00000641  00000-0  61463-4 0  9997,2 56787  70.0006   9.0310 0003213 271.2347  88.8444 14.98337946 64972,6950.168,96.106,574.266,569.8,0.0
56787.0,STARLINK-6326,PAYLOAD,2024-07-29 10:51:41,14.98328588,0.0003021,70.0012,7.5166,274.4912,85.5902,9.4574e-05,1.036e-05,0.0,0 STARLINK-6326,1 56787U 23078W   24211.45256659  .00001036  00000-0  94574-4 0  9998,2 56787  70.0012   7.5166 0003021 274.4912  85.5902 14.98328588 65067,6950.197,96.107,574.162,569.963,0.0
56787.0,STARLINK-6326,PAYLOAD,2024-07-29 20:28:29,14.98331542,0.0002988,70.0013,6.5067,274.8127,85.2691,0.00012062,1.347e-05,0.0,0 STARLINK-6326,1 56787U 23078W   24211.85312459  .00001347  00000-0  12062-3 0  9999,2 56787  70.0013   6.5067 0002988 274.8127  85.2691 14.98331542 65381,6950.188,96.107,574.13,569.976,0.0
56787.0,STARLINK-6326,PAYLOAD,2024-07-30 20:30:30,14.98334814,0.0002892,70.0017,3.9811,273.9254,86.1574,5.5249e-05,5.66e-06,0.0,0 STARLINK-6326,1 56787U 23078W   24212.85452255  .00000566  00000-0  55249-4 0  9996,2 56787  70.0017   3.9811 0002892 273.9254  86.1574 14.98334814 65530,6950.178,96.107,574.053,570.033,0.0
56787.0,STARLINK-6326,PAYLOAD,2024-07-31 12:31:52,14.98324852,0.0002846,70.0021,2.298,272.6997,87.3837,-7.2804e-05,-9.61e-06,0.0,0 STARLINK-6326,1 56787U 23078W   24213.52213180 -.00000961  00000-0 -72804-4 0  9990,2 56787  70.0021   2.2980 0002846 272.6997  87.3837 14.98324852 65630,6950.209,96.107,574.052,570.096,0.0
56787.0,STARLINK-6326,PAYLOAD,2024-07-31 14:08:00,14.98324238,0.0002857,70.002,2.1297,272.4926,87.5906,-7.8493e-05,-1.029e-05,0.0,0 STARLINK-6326,1 56787U 23078W   24213.58889244 -.00001029  00000-0 -78493-4 0  9992,2 56787  70.0020   2.1297 0002857 272.4926  87.5906 14.98324238 65380,6950.211,96.107,574.061,570.09,0.0
56787.0,STARLINK-6326,PAYLOAD,2024-07-31 18:56:24,14.98326284,0.0002862,70.002,1.6271,260.1714,99.9122,-5.4409e-05,-7.42e-06,0.0,0 STARLINK-6326,1 56787U 23078W   24213.78917037 -.00000742  00000-0 -54409-4 0  9998,2 56787  70.0020   1.6271 0002862 260.1714  99.9122 14.98326284 65415,6950.204,96.107,574.059,570.08,0.0
56787.0,STARLINK-6326,PAYLOAD,2024-08-01 02:57:04,14.98330176,0.0003005,70.002,0.7863,258.7056,101.3766,2.8213e-05,2.44e-06,0.0,0 STARLINK-6326,1 56787U 23078W   24214.12296586  .00000244  00000-0  28213-4 0  9995,2 56787  70.0020   0.7863 0003005 258.7056 101.3766 14.98330176 65725,6950.192,96.107,574.146,569.969,0.0
56787.0,STARLINK-6326,PAYLOAD,2024-08-01 12:33:51,14.98339432,0.0002906,70.0018,359.7737,266.3528,93.7298,0.00014529,1.641e-05,0.0,0 STARLINK-6326,1 56787U 23078W   24214.52351611  .00001641  00000-0  14529-3 0  9996,2 56787  70.0018 359.7737 0002906 266.3528  93.7298 14.98339432 65523,6950.164,96.106,574.048,570.009,0.0
